STARLINK-31487          
1 59297U 24056B   26068.50519441  .00001010  00000+0  46196-4 0  9991
2 59297  43.0054 231.9648 0001821 256.8668 103.1981 15.27601209111241
TEVEL2-6                
1 63215U 25052F   26068.64958975  .00021046  00000+0  70909-3 0  9996
2 63215  97.4016 325.0381 0004769  95.6604 264.5181 15.30760889 54861
